GLOBALSTAR M045         
1 25676U 99019A   25145.77913149 -.00000046  00000+0  41835-3 0  9996
2 25676  51.9993   9.1371 0000918 103.4824 301.2598 12.27062584190640
GLOBALSTAR M019         
1 25677U 99019B   25145.72910350  .00000038  00000+0  13372-2 0  9997
2 25677  51.9850 138.0632 0001363 283.4434 247.6040 12.13875777182418
GLOBALSTAR M044         
1 25678U 99019C   25145.83885536 -.00000078  00000+0  84182-4 0  9991
2 25678  51.9967  86.3228 0006570 359.7501  45.3392 11.90250426168667
GLOBALSTAR M042         
1 25679U 99019D   25145.97557250 -.00000075  00000+0  16255-3 0  9998
2 25679  51.9994 113.6561 0002786 259.5062 142.0185 12.22083068182614
GLOBALSTAR M025         
1 25770U 99031A   25145.89322639 -.00000041  00000+0  81880-3 0  9995
2 25770  51.9795 210.9183 0001772 127.6604  43.3343 11.22558125479200
GLOBALSTAR M049         
1 25771U 99031B   25145.51897242  .00000007  00000+0  25127-2 0  9994
2 25771  51.9871 245.4097 0002164 331.3096  28.7581 11.12115274114905
GLOBALSTAR M047         
1 25772U 99031C   25145.54258309 -.00000066  00000+0  86054-4 0  9997
2 25772  51.9827 244.4887 0016719 222.2817 137.6700 11.31928178468544
GLOBALSTAR M052         
1 25773U 99031D   25145.89432424 -.00000073  00000+0 -23397-3 0  9997
2 25773  51.9895 353.5458 0003129 125.4995 247.2746 11.15059613476029
